CCSDS_OMM_VERS,COMMENT,CREATION_DATE,ORIGINATOR,OBJECT_NAME,OBJECT_ID,CENTER_NAME,REF_FRAME,TIME_SYSTEM,MEAN_ELEMENT_THEORY,EPOCH,MEAN_MOTION,ECCENTRICITY,INCLINATION,RA_OF_ASC_NODE,ARG_OF_PERICENTER,MEAN_ANOMALY,EPHEMERIS_TYPE,CLASSIFICATION_TYPE,NORAD_CAT_ID,ELEMENT_SET_NO,REV_AT_EPOCH,BSTAR,MEAN_MOTION_DOT,MEAN_MOTION_DDOT,SEMIMAJOR_AXIS,PERIOD,APOAPSIS,PERIAPSIS,OBJECT_TYPE,RCS_SIZE,COUNTRY_CODE,LAUNCH_DATE,SITE,DECAY_DATE,FILE,GP_ID,TLE_LINE0,TLE_LINE1,TLE_LINE2,NORAD_KEY,JCAT,DeepCat,Satcat,Piece,Active,Type,Name,LDate,Parent,Owner,State,SDate,ExpandedStatus,DDate,ODate,Period,Perigee,PF,Apogee,AF,Inc,IF,OpOrbit,SATCAT_KEY,DENSITY_SCORE
3.0,GENERATED VIA SPACE-TRACK.ORG API,2026-05-06T02:32:52,18 SPCS,INTELSAT 2 (PAS 2),1994-040A,EARTH,TEME,UTC,SGP4,2026-05-05T18:42:55.950336,0.99189648,0.00048166,12.1516,34.9243,17.5969,176.0916,0,U,23175,999,11522,0.0,1e-08,0.0,42470.849,1451.764,36113.171,36072.258,PAYLOAD,LARGE,US,1994-07-08,FRGUI,,5176277,322215304,0 INTELSAT 2 (PAS 2),1 23175U 94040A   26125.77981424  .00000001  00000-0  00000-0 0  9994,2 23175  12.1516  34.9243 0004817  17.5969 176.0916  0.99189648115223,23175,S23175,-,23175,1994-040A,P,P,Intelsat IS-2,1994 Jul  8,S23177,SESINTU,US,1994 Jul  8 2325?,In Earth orbit,-,2026 May  4 ,1451.761,36072, ,36113, ,12.15, ,GEO/ID,23175,1.1885541344269785
3.0,GENERATED VIA SPACE-TRACK.ORG API,2026-05-06T10:08:52,18 SPCS,ASTRA 1E,1995-055A,EARTH,TEME,UTC,SGP4,2026-05-05T21:52:43.318272,0.98792438,0.00093631,11.4437,40.7629,356.293,184.1383,0,U,23686,999,11135,0.0,-4.6e-07,0.0,42584.613,1457.601,36246.35,36166.606,PAYLOAD,LARGE,SES,1995-10-19,FRGUI,,5176958,322265626,0 ASTRA 1E,1 23686U 95055A   26125.91161248 -.00000046  00000-0  00000-0 0  9998,2 23686  11.4437  40.7629 0009363 356.2930 184.1383  0.98792438111353,23686,S23686,-,23686,1995-055A,P,P      G,Astra 1E,1995 Oct 19,S23687,SESSA,L,1995 Oct 19 0059,In Earth orbit,-,2026 May  4 ,1457.608,36166, ,36246, ,11.44, ,GEO/ID,23686,1.2015153858125829
3.0,GENERATED VIA SPACE-TRACK.ORG API,2026-05-06T10:08:52,18 SPCS,INTELSAT 601,1991-075A,EARTH,TEME,UTC,SGP4,2026-05-05T23:20:27.401568,0.99595384,0.00032023,13.3488,17.2467,316.1613,217.3508,0,U,21765,999,12595,0.0,-2.52e-06,0.0,42355.424,1445.85,35990.853,35963.726,PAYLOAD,LARGE,ITSO,1991-10-29,FRGUI,,5176958,322264762,0 INTELSAT 601,1 21765U 91075A   26125.97253937 -.00000252  00000-0  00000-0 0  9994,2 21765  13.3488  17.2467 0003202 316.1613 217.3508  0.99595384125955,21765,S21765,-,21765,1991-075A,P,P,INTELSAT 601,1991 Oct 29,S21766,SESINTU,US,1991 Oct 29 2330,In Earth orbit,-,2026 May  4 ,1445.848,35963, ,35990, ,13.35, ,GEO/ID,21765,1.2024019349888315
3.0,GENERATED VIA SPACE-TRACK.ORG API,2026-05-06T14:56:52,18 SPCS,OPTUS B3,1994-055A,EARTH,TEME,UTC,SGP4,2026-05-06T09:00:34.056288,0.98697131,0.0007117,12.2958,30.6516,11.22,168.6208,0,U,23227,999,11550,0.0,-3.6e-07,0.0,42612.023,1459.009,36264.215,36203.561,PAYLOAD,LARGE,AUS,1994-08-27,XSC,,5177499,322305604,0 OPTUS B3,1 23227U 94055A   26126.37539417 -.00000036  00000-0  00000+0 0  9994,2 23227  12.2958  30.6516 0007117  11.2200 168.6208  0.98697131115505,23227,S23227,-,23227,1994-055A,P,P,Optus B3,1994 Aug 27,S23229,OPTS,AU,1994 Aug 28 0113,In Earth orbit,-,2026 May  4 ,1459.02,36203, ,36264, ,12.29, ,GEO/ID,23227,1.2053536867311205
3.0,GENERATED VIA SPACE-TRACK.ORG API,2026-05-06T10:08:52,18 SPCS,GSTAR 4,1990-100B,EARTH,TEME,UTC,SGP4,2026-05-06T02:33:43.439328,0.99144393,0.00092345,14.25,10.4148,348.4564,198.1853,0,U,20946,999,4639,0.0,-1.75e-06,0.0,42483.772,1452.427,36144.869,36066.405,PAYLOAD,LARGE,US,1990-11-20,FRGUI,,5176958,322263572,0 GSTAR 4,1 20946U 90100B   26126.10675277 -.00000175  00000-0  00000-0 0  9997,2 20946  14.2500  10.4148 0009235 348.4564 198.1853  0.99144393 46395,20946,S20946,-,20946,1990-100B,P,P,Gstar 4,1990 Nov 20,S20947,SESSAP,US,1990 Nov 20 2334,In Earth orbit,-,2026 May  4 ,1452.418,36065, ,36145, ,14.25, ,GEO/ID,20946,1.2061070188270189
3.0,GENERATED VIA SPACE-TRACK.ORG API,2026-05-06T15:06:46,18 SPCS,ESTRELA DU SOL-TELSTAR14,2004-001A,EARTH,TEME,UTC,SGP4,2026-05-06T13:05:55.404960,0.98832438,0.0006851,10.9994,44.9371,351.3877,230.4249,0,U,28137,999,8117,0.0,-3.7e-07,0.0,42573.122,1457.012,36224.154,36165.82,PAYLOAD,LARGE,USBZ,2004-01-11,SEAL,,5177728,322310847,0 ESTRELA DU SOL-TELSTAR14,1 28137U 04001A   26126.54578015 -.00000037  00000-0  00000+0 0  9998,2 28137  10.9994  44.9371 0006851 351.3877 230.4249  0.98832438 81173,28137,S28137,-,28137,2004-001A,P,P,Estrela do Sul 1,2004 Jan 11,S28138,TSKYBR,BR,2004 Jan 11 0521,In Earth orbit,-,2026 May  5 ,1457.02,36165, ,36224, ,11.0, ,GEO/ID,28137,1.2092635488266859
3.0,GENERATED VIA SPACE-TRACK.ORG API,2026-05-06T02:32:52,18 SPCS,KOREASAT 1,1995-041A,EARTH,TEME,UTC,SGP4,2026-05-05T16:52:41.833344,0.99663215,0.00038132,14.7126,358.9436,319.4144,215.7879,0,U,23639,999,11210,0.0,9.3e-07,0.0,42336.204,1444.866,35974.212,35941.925,PAYLOAD,LARGE,SKOR,1995-08-05,AFETR,,5176277,322215410,0 KOREASAT 1,1 23639U 95041A   26125.70326196  .00000093  00000-0  00000-0 0  9994,2 23639  14.7126 358.9436 0003813 319.4144 215.7879  0.99663215112100,23639,S23639,-,23639,1995-041A,P,P,Mugunghwa 1,1995 Aug  5,S23641,KTELT,KR,1995 Aug  5 1226,In Earth orbit,-,2026 May  4 ,1444.87,35941, ,35974, ,14.71, ,GEO/ID,23639,1.2108602844117782
3.0,GENERATED VIA SPACE-TRACK.ORG API,2026-05-06T10:08:52,18 SPCS,RADUGA 1M-1,2007-058A,EARTH,TEME,UTC,SGP4,2026-05-05T21:56:27.959136,0.99395107,0.00021536,10.0841,52.1732,326.323,217.2294,0,U,32373,999,5197,0.0,9.6e-07,0.0,42412.301,1448.763,36043.3,36025.032,PAYLOAD,LARGE,CIS,2007-12-09,TTMTR,,5176958,322268588,0 RADUGA 1M-1,1 32373U 07058A   26125.91421249  .00000096  00000-0  00000-0 0  9991,2 32373  10.0841  52.1732 0002154 326.3230 217.2294  0.99395107 51977,32373,S32373,-,32373,2007-058A,P,P,Raduga-1M,2007 Dec  9,S32375,VVKOV,RU,2007 Dec  9 0917,In Earth orbit,-,2026 May  4 ,1448.77,36025, ,36043, ,10.08, ,GEO/ID,32373,1.218742886631429
3.0,GENERATED VIA SPACE-TRACK.ORG API,2026-05-06T14:56:52,18 SPCS,SBS 5,1988-081B,EARTH,TEME,UTC,SGP4,2026-05-06T03:48:35.783136,0.99785903,0.0007437,14.5959,1.2512,327.2143,224.5338,0,U,19484,999,4604,0.0,-1.42e-06,0.0,42301.495,1443.09,35954.819,35891.9,PAYLOAD,LARGE,US,1988-09-08,FRGUI,,5177395,322302812,0 SBS 5,1 19484U 88081B   26126.15874749 -.00000142  00000-0  00000+0 0  9990,2 19484  14.5959   1.2512 0007437 327.2143 224.5338  0.99785903 46046,19484,S19484,-,19484,1988-081B,P,P,SBS 5,1988 Sep  8,S19485,SESINTU,US,1988 Sep  8 2321,In Earth orbit,-,2026 May  5 ,1443.087,35891, ,35954, ,14.6, ,GEO/ID,19484,1.2200008498122503
3.0,GENERATED VIA SPACE-TRACK.ORG API,2026-05-06T14:56:52,18 SPCS,SATCOM C4,1992-057A,EARTH,TEME,UTC,SGP4,2026-05-06T06:45:33.746112,0.99015861,0.0004159,13.7115,16.5237,314.6098,255.4728,0,U,22096,999,12449,0.0,-3e-08,0.0,42520.529,1454.312,36160.079,36124.71,PAYLOAD,LARGE,US,1992-08-31,AFETR,,5177467,322304704,0 SATCOM C4,1 22096U 92057A   26126.28164058 -.00000003  00000-0  00000+0 0  9996,2 22096  13.7115  16.5237 0004159 314.6098 255.4728  0.99015861124495,22096,S22096,-,22096,1992-057A,P,P,Satcom C4,1992 Aug 31,S22098,SESG,GI,1992 Aug 31 1158?,In Earth orbit,-,2026 May  4 ,1454.309,36123, ,36160, ,13.71, ,GEO/ID,22096,1.2274912238797757
3.0,GENERATED VIA SPACE-TRACK.ORG API,2026-05-06T14:56:52,18 SPCS,SIRIUS 3,1998-056B,EARTH,TEME,UTC,SGP4,2026-05-06T07:14:38.778144,0.99032718,0.0002283,11.7157,34.6861,19.5314,182.7617,0,U,25492,999,10070,0.0,-8e-08,0.0,42515.704,1454.065,36147.275,36127.863,PAYLOAD,LARGE,SES,1998-10-05,FRGUI,,5177564,322306985,0 SIRIUS 3,1 25492U 98056B   26126.30183771 -.00000008  00000-0  00000+0 0  9995,2 25492  11.7157  34.6861 0002283  19.5314 182.7617  0.99032718100701,25492,S25492,-,25492,1998-056B,P,P,Sirius 3,1998 Oct  5,S25493,SESS,S,1998 Oct  5 2316,In Earth orbit,-,2026 May  5 ,1454.063,36127, ,36147, ,11.71, ,GEO/ID,25492,1.232432344691292
3.0,GENERATED VIA SPACE-TRACK.ORG API,2026-05-06T10:08:52,18 SPCS,NSS 703 (INTELSAT 703),1994-064A,EARTH,TEME,UTC,SGP4,2026-05-06T01:05:59.355168,0.99307984,0.00075221,11.6496,37.1754,280.7409,269.8818,0,U,23305,999,11531,0.0,-2.16e-06,0.0,42437.103,1450.034,36090.89,36027.047,PAYLOAD,LARGE,SES,1994-10-06,AFETR,,5176958,322264537,0 NSS 703 (INTELSAT 703),1 23305U 94064A   26126.04582587 -.00000216  00000-0  00000-0 0  9992,2 23305  11.6496  37.1754 0007522 280.7409 269.8818  0.99307984115317,23305,S23305,-,23305,1994-064A,P,P,NSS 703,1994 Oct  6,S23306,SESSAN,NL,1994 Oct  6 0703,In Earth orbit,-,2026 May  5 ,1450.035,36027, ,36090, ,11.65, ,GEO/ID,23305,1.2370634902531363
3.0,GENERATED VIA SPACE-TRACK.ORG API,2026-05-06T14:56:52,18 SPCS,HISPASAT 1A,1992-060A,EARTH,TEME,UTC,SGP4,2026-05-06T12:03:38.806272,0.99318349,0.0006051,14.1662,10.5753,329.5649,197.5922,0,U,22116,999,11908,0.0,-3.13e-06,0.0,42434.151,1449.883,36081.693,36030.339,PAYLOAD,LARGE,SPN,1992-09-10,FRGUI,,5177467,322304706,0 HISPASAT 1A,1 22116U 92060A   26126.50253248 -.00000313  00000-0  00000+0 0  9992,2 22116  14.1662  10.5753 0006051 329.5649 197.5922  0.99318349119085,22116,S22116,-,22116,1992-060A,P,P,Hispasat 1A,1992 Sep 10,S22119,HISP,E,1992 Sep 10 2324,In Earth orbit,-,2026 May  4 ,1449.872,36030, ,36081, ,14.16, ,GEO/ID,22116,1.2374624800989962
3.0,GENERATED VIA SPACE-TRACK.ORG API,2026-05-06T10:08:52,18 SPCS,SPACENET 3R,1988-018A,EARTH,TEME,UTC,SGP4,2026-05-06T04:07:11.971776,0.99656693,0.00034558,14.6916,0.0081,295.6293,252.7226,0,U,18951,999,12419,0.0,-7e-07,0.0,42338.051,1444.961,35974.547,35945.285,PAYLOAD,LARGE,US,1988-03-11,FRGUI,,5176958,322263281,0 SPACENET 3R,1 18951U 88018A   26126.17166634 -.00000070  00000-0  00000-0 0  9998,2 18951  14.6916   0.0081 0003456 295.6293 252.7226  0.99656693124192,18951,S18951,-,18951,1988-018A,P,P,Spacenet 3R,1988 Mar 11,S18953,SESSAP,US,1988 Mar 11 2346,In Earth orbit,-,2026 May  4 ,1444.958,35945, ,35974, ,14.69, ,GEO/ID,18951,1.239901581313668
